ONEWEB-0721             
1 56725U 23068R   26155.58046789  .00000057  00000+0  10197-3 0  9992
2 56725  86.6762  89.5391 0001942  78.1475 281.9876 13.22468703156273
ONEWEB-0015             
1 61594U 24188A   26155.64419672 -.00000180  00000+0 -54362-3 0  9999
2 61594  87.8896  23.5896 0002318  79.6833 280.4556 13.11415241 82818
ONEWEB-0687             
1 61595U 24188B   26155.09381818  .00000033  00000+0  50616-4 0  9993
2 61595  87.9135   8.4818 0002327  91.5540 268.5858 13.17650844 84179
ONEWEB-0688             
1 61596U 24188C   26155.65405746  .00000071  00000+0  15084-3 0  9994
2 61596  87.9138   8.3700 0002993  77.1153 283.0313 13.17647762 84242
ONEWEB-0689             
1 61597U 24188D   26155.67810926 -.00000017  00000+0 -83829-4 0  9992
2 61597  87.8911  23.5395 0001906  92.9237 267.2109 13.11419414 82814
ONEWEB-0690             
1 61598U 24188E   26155.15421358  .00000425  00000+0  11635-2 0  9998
2 61598  87.8912  23.6550 0001610  58.7372 301.3914 13.11419090 82928
ONEWEB-0691             
1 61599U 24188F   26155.14912607  .00000456  00000+0  12509-2 0  9995
2 61599  87.8918  23.5642 0002194  83.8391 276.2987 13.11417929 82776
ONEWEB-0692             
1 61600U 24188G   26155.16946878  .00000509  00000+0  14009-2 0  9993
2 61600  87.8896  23.6760 0001351 108.0060 252.1215 13.11416694 82767
ONEWEB-0693             
1 61601U 24188H   26155.66586374  .00000038  00000+0  65650-4 0  9997
2 61601  87.9135   8.3882 0001752  58.4765 301.6538 13.17651465 84230
ONEWEB-0695             
1 61602U 24188J   26155.67980166  .00000023  00000+0  28132-4 0  9994
2 61602  87.8902  23.5663 0001751 102.6796 257.4528 13.11418515 82824
ONEWEB-0697             
1 61603U 24188K   26155.17794284  .00000245  00000+0  65644-3 0  9998
2 61603  87.8894  23.6567 0001279 108.3101 251.8167 13.11415815 82745
ONEWEB-0698             
1 61604U 24188L   26155.15590173  .00000515  00000+0  14175-2 0  9990
2 61604  87.8894  23.6753 0000676  65.3392 294.7806 13.11418523 82764
ONEWEB-0699             
1 61605U 24188M   26155.69287275 -.00000481  00000+0 -14137-2 0  9998
2 61605  87.8840  38.7538 0001256  96.9694 263.1577 13.10370134 81672
ONEWEB-0700             
1 61606U 24188N   26155.69452970 -.00000376  00000+0 -11145-2 0  9994
2 61606  87.8855  38.6614 0001618 104.8665 255.2641 13.10371482 81662
ONEWEB-0701             
1 61607U 24188P   26155.17662659 -.00000406  00000+0 -11986-2 0  9992
2 61607  87.8855  38.8552 0001098  98.2372 261.8880 13.10376913 81605
ONEWEB-0702             
1 61608U 24188Q   26155.65946029 -.00000694  00000+0 -19932-2 0  9990
2 61608  87.8917  23.4767 0001257 108.4732 251.6533 13.11417321 82843
ONEWEB-0704             
1 61609U 24188R   26155.69951128 -.00000679  00000+0 -19807-2 0  9995
2 61609  87.8853  38.7402 0001651 114.6545 245.4755 13.10372712 81655
ONEWEB-0705             
1 61610U 24188S   26155.16997931 -.00000629  00000+0 -18388-2 0  9999
2 61610  87.8854  38.8515 0002406 106.0438 254.0955 13.10373663 73755
ONEWEB-0706             
1 61611U 24188T   26155.68955492 -.00000223  00000+0 -67417-3 0  9991
2 61611  87.8839  38.7545 0001753  99.2712 260.8613 13.10370784 81748
ONEWEB-0707             
1 61612U 24188U   26155.69618953 -.00000551  00000+0 -16150-2 0  9992
2 61612  87.8850  38.7480 0001768 111.4446 248.6870 13.10370528 81685
ONEWEB-0708             
1 61613U 24188V   26155.17995015 -.00000190  00000+0 -58097-3 0  9999
2 61613  87.8855  38.8676 0002273  90.5717 269.5671 13.10377729 81590
