OBJECT_NAME,OBJECT_ID,EPOCH,MEAN_MOTION,ECCENTRICITY,INCLINATION,RA_OF_ASC_NODE,ARG_OF_PERICENTER,MEAN_ANOMALY,EPHEMERIS_TYPE,CLASSIFICATION_TYPE,NORAD_CAT_ID,ELEMENT_SET_NO,REV_AT_EPOCH,BSTAR,MEAN_MOTION_DOT,MEAN_MOTION_DDOT
ONEWEB-0721,2023-068R,2026-06-04T13:55:52.425696,13.22468703,.00019426,86.6762,89.5391,78.1475,281.9876,0,U,56725,999,15627,.10196756E-3,.57E-6,0
ONEWEB-0015,2024-188A,2026-06-04T15:27:38.596608,13.11415241,.00023186,87.8896,23.5896,79.6833,280.4556,0,U,61594,999,8281,-.54362071E-3,-.18E-5,0
ONEWEB-0687,2024-188B,2026-06-04T02:15:05.890752,13.17650844,.00023271,87.9135,8.4818,91.5540,268.5858,0,U,61595,999,8417,.50615556E-4,.33E-6,0
ONEWEB-0688,2024-188C,2026-06-04T15:41:50.564544,13.17647762,.00029938,87.9138,8.3700,77.1153,283.0313,0,U,61596,999,8424,.15083952E-3,.71E-6,0
ONEWEB-0689,2024-188D,2026-06-04T16:16:28.640064,13.11419414,.0001906,87.8911,23.5395,92.9237,267.2109,0,U,61597,999,8281,-.8382919E-4,-.17E-6,0
ONEWEB-0690,2024-188E,2026-06-04T03:42:04.053312,13.11419090,.00016105,87.8912,23.6550,58.7372,301.3914,0,U,61598,999,8292,.11634763E-2,.425E-5,0
ONEWEB-0691,2024-188F,2026-06-04T03:34:44.492448,13.11417929,.00021941,87.8918,23.5642,83.8391,276.2987,0,U,61599,999,8277,.12508547E-2,.456E-5,0
ONEWEB-0692,2024-188G,2026-06-04T04:04:02.102592,13.11416694,.00013515,87.8896,23.6760,108.0060,252.1215,0,U,61600,999,8276,.14008503E-2,.509E-5,0
ONEWEB-0693,2024-188H,2026-06-04T15:58:50.627136,13.17651465,.00017526,87.9135,8.3882,58.4765,301.6538,0,U,61601,999,8423,.65650057E-4,.38E-6,0
ONEWEB-0695,2024-188J,2026-06-04T16:18:54.863424,13.11418515,.00017513,87.8902,23.5663,102.6796,257.4528,0,U,61602,999,8282,.28132336E-4,.23E-6,0
ONEWEB-0697,2024-188K,2026-06-04T04:16:14.261376,13.11415815,.00012797,87.8894,23.6567,108.3101,251.8167,0,U,61603,999,8274,.65643828E-3,.245E-5,0
ONEWEB-0698,2024-188L,2026-06-04T03:44:29.909472,13.11418523,.00006769,87.8894,23.6753,65.3392,294.7806,0,U,61604,999,8276,.14174625E-2,.515E-5,0
ONEWEB-0699,2024-188M,2026-06-04T16:37:44.205600,13.10370134,.00012565,87.8840,38.7538,96.9694,263.1577,0,U,61605,999,8167,-.14136863E-2,-.481E-5,0
ONEWEB-0700,2024-188N,2026-06-04T16:40:07.366080,13.10371482,.00016186,87.8855,38.6614,104.8665,255.2641,0,U,61606,999,8166,-.1114503E-2,-.376E-5,0
ONEWEB-0701,2024-188P,2026-06-04T04:14:20.537376,13.10376913,.00010987,87.8855,38.8552,98.2372,261.8880,0,U,61607,999,8160,-.11986355E-2,-.406E-5,0
ONEWEB-0702,2024-188Q,2026-06-04T15:49:37.369056,13.11417321,.00012571,87.8917,23.4767,108.4732,251.6533,0,U,61608,999,8284,-.19932328E-2,-.694E-5,0
ONEWEB-0704,2024-188R,2026-06-04T16:47:17.774592,13.10372712,.00016515,87.8853,38.7402,114.6545,245.4755,0,U,61609,999,8165,-.19807389E-2,-.679E-5,0
ONEWEB-0705,2024-188S,2026-06-04T04:04:46.212384,13.10373663,.00024066,87.8854,38.8515,106.0438,254.0955,0,U,61610,999,7375,-.18388254E-2,-.629E-5,0
ONEWEB-0706,2024-188T,2026-06-04T16:32:57.545088,13.10370784,.00017539,87.8839,38.7545,99.2712,260.8613,0,U,61611,999,8174,-.67417088E-3,-.223E-5,0
ONEWEB-0707,2024-188U,2026-06-04T16:42:30.775392,13.10370528,.00017689,87.8850,38.7480,111.4446,248.6870,0,U,61612,999,8168,-.16150187E-2,-.551E-5,0
ONEWEB-0708,2024-188V,2026-06-04T04:19:07.692960,13.10377729,.00022731,87.8855,38.8676,90.5717,269.5671,0,U,61613,999,8159,-.58097108E-3,-.19E-5,0
